COMMENT,ORIGINATOR,NORAD_CAT_ID,OBJECT_NAME,OBJECT_TYPE,CLASSIFICATION_TYPE,INTLDES,EPOCH,EPOCH_MICROSECONDS,MEAN_MOTION,ECCENTRICITY,INCLINATION,RA_OF_ASC_NODE,ARG_OF_PERICENTER,MEAN_ANOMALY,EPHEMERIS_TYPE,ELEMENT_SET_NO,REV_AT_EPOCH,BSTAR,MEAN_MOTION_DOT,MEAN_MOTION_DDOT,FILE,TLE_LINE0,TLE_LINE1,TLE_LINE2,OBJECT_ID,OBJECT_NUMBER,SEMIMAJOR_AXIS,PERIOD,APOGEE,PERIGEE,DECAYED
"GENERATED VIA SPACETRACK.ORG API","18 SPCS","55089","SPACEBEE-163","PAYLOAD","U","23001CJ","2024-01-09 03:53:11","5152","15.31874386","0.0011223","97.4463","73.6018","4.1649","355.9684","0","999","5649","0.0011477","0.00035433","0","4157242","0 SPACEBEE-163","1 55089U 23001CJ  24009.16193293  .00035433  00000-0  11477-2 0  9992","2 55089  97.4463  73.6018 0011223   4.1649 355.9684 15.31874386 56490","2023-001CJ","55089","6848.357","94.002","477.908","462.536","0"
"GENERATED VIA SPACETRACK.ORG API","18 SPCS","55089","SPACEBEE-163","PAYLOAD","U","23001CJ","2024-01-09 03:53:11","5152","15.31874386","0.0011223","97.4463","73.6018","4.1649","355.9684","0","999","5649","0.0011477","0.00035433","0","4157515","0 SPACEBEE-163","1 55089U 23001CJ  24009.16193293  .00035433  00000-0  11477-2 0  9992","2 55089  97.4463  73.6018 0011223   4.1649 355.9684 15.31874386 56490","2023-001CJ","55089","6848.357","94.002","477.908","462.536","0"
"GENERATED VIA SPACETRACK.ORG API","18 SPCS","55089","SPACEBEE-163","PAYLOAD","U","23001CJ","2024-01-09 17:59:44","236320","15.31920067","0.0011187","97.446","74.1926","1.9554","358.1729","0","999","5658","0.0011954","0.00036968","0","4157773","0 SPACEBEE-163","1 55089U 23001CJ  24009.74981755  .00036968  00000-0  11954-2 0  9998","2 55089  97.4460  74.1926 0011187   1.9554 358.1729 15.31920067 56583","2023-001CJ","55089","6848.221","94.000","477.747","462.425","0"
"GENERATED VIA SPACETRACK.ORG API","18 SPCS","55089","SPACEBEE-163","PAYLOAD","U","23001CJ","2024-01-10 03:24:05","585184","15.319497","0.0011174","97.446","74.5863","0.4419","359.6831","0","999","5664","0.0012095","0.00037442","0","4158336","0 SPACEBEE-163","1 55089U 23001CJ  24010.14173131  .00037442  00000-0  12095-2 0  9990","2 55089  97.4460  74.5863 0011174   0.4419 359.6831 15.31949700 56649","2023-001CJ","55089","6848.133","93.998","477.650","462.346","0"
"GENERATED VIA SPACETRACK.ORG API","18 SPCS","55089","SPACEBEE-163","PAYLOAD","U","23001CJ","2024-01-10 17:30:36","306432","15.31997476","0.0011144","97.4458","75.1769","358.2788","1.8413","0","999","5673","0.001267","0.00039293","0","4158620","0 SPACEBEE-163","1 55089U 23001CJ  24010.72958688  .00039293  00000-0  12670-2 0  9997","2 55089  97.4458  75.1769 0011144 358.2788   1.8413 15.31997476 56733","2023-001CJ","55089","6847.990","93.995","477.487","462.224","0"
"GENERATED VIA SPACETRACK.ORG API","18 SPCS","55089","SPACEBEE-163","PAYLOAD","U","23001CJ","2024-01-11 02:54:55","791648","15.32036952","0.0011121","97.4456","75.5708","356.9007","3.2164","0","999","5679","0.0014742","0.00045827","0","4159230","0 SPACEBEE-163","1 55089U 23001CJ  24011.12147907  .00045827  00000-0  14742-2 0  9998","2 55089  97.4456  75.5708 0011121 356.9007   3.2164 15.32036952 56791","2023-001CJ","55089","6847.873","93.993","477.353","462.122","0"
"GENERATED VIA SPACETRACK.ORG API","18 SPCS","55089","SPACEBEE-163","PAYLOAD","U","23001CJ","2024-01-11 02:54:55","791648","15.32036952","0.0011121","97.4456","75.5708","356.9007","3.2164","0","999","5679","0.0014742","0.00045827","0","4159265","0 SPACEBEE-163","1 55089U 23001CJ  24011.12147907  .00045827  00000-0  14742-2 0  9998","2 55089  97.4456  75.5708 0011121 356.9007   3.2164 15.32036952 56791","2023-001CJ","55089","6847.873","93.993","477.353","462.122","0"
"GENERATED VIA SPACETRACK.ORG API","18 SPCS","55089","SPACEBEE-163","PAYLOAD","U","23001CJ","2024-01-11 17:01:23","476800","15.32093812","0.0011164","97.4456","76.1619","354.8666","5.2459","0","999","5688","0.0014967","0.00046616","0","4159545","0 SPACEBEE-163","1 55089U 23001CJ  24011.70929950  .00046616  00000-0  14967-2 0  9994","2 55089  97.4456  76.1619 0011164 354.8666   5.2459 15.32093812 56881","2023-001CJ","55089","6847.703","93.989","477.213","461.924","0"
"GENERATED VIA SPACETRACK.ORG API","18 SPCS","55089","SPACEBEE-163","PAYLOAD","U","23001CJ","2024-01-12 03:59:43","739808","15.32135905","0.0011105","97.4452","76.6213","353.3279","6.7813","0","999","5695","0.0014548","0.0004536","0","4159823","0 SPACEBEE-163","1 55089U 23001CJ  24012.16647847  .00045360  00000-0  14548-2 0  9997","2 55089  97.4452  76.6213 0011105 353.3279   6.7813 15.32135905 56959","2023-001CJ","55089","6847.578","93.986","477.047","461.839","0"
"GENERATED VIA SPACETRACK.ORG API","18 SPCS","55089","SPACEBEE-163","PAYLOAD","U","23001CJ","2024-01-12 03:59:43","739808","15.32135905","0.0011105","97.4452","76.6213","353.3279","6.7813","0","999","5695","0.0014548","0.0004536","0","4160109","0 SPACEBEE-163","1 55089U 23001CJ  24012.16647847  .00045360  00000-0  14548-2 0  9997","2 55089  97.4452  76.6213 0011105 353.3279   6.7813 15.32135905 56959","2023-001CJ","55089","6847.578","93.986","477.047","461.839","0"
"GENERATED VIA SPACETRACK.ORG API","18 SPCS","55089","SPACEBEE-163","PAYLOAD","U","23001CJ","2024-01-12 18:06:08","104608","15.321914","0.0011036","97.4447","77.2121","351.3221","8.7828","0","999","5704","0.0014073","0.00043943","0","4160399","0 SPACEBEE-163","1 55089U 23001CJ  24012.75426047  .00043943  00000-0  14073-2 0  9997","2 55089  97.4447  77.2121 0011036 351.3221   8.7828 15.32191400 57047","2023-001CJ","55089","6847.413","93.983","476.834","461.721","0"
"GENERATED VIA SPACETRACK.ORG API","18 SPCS","55089","SPACEBEE-163","PAYLOAD","U","23001CJ","2024-01-13 03:30:23","391648","15.32227087","0.0010879","97.4444","77.6058","349.7336","10.3682","0","999","5710","0.0014495","0.00045319","0","4160970","0 SPACEBEE-163","1 55089U 23001CJ  24013.14610407  .00045319  00000-0  14495-2 0  9993","2 55089  97.4444  77.6058 0010879 349.7336  10.3682 15.32227087 57104","2023-001CJ","55089","6847.306","93.981","476.620","461.722","0"
"GENERATED VIA SPACETRACK.ORG API","18 SPCS","55089","SPACEBEE-163","PAYLOAD","U","23001CJ","2024-01-13 17:36:44","805888","15.32282172","0.0010858","97.444","78.1964","347.6875","12.4099","0","999","5719","0.0014579","0.00045663","0","4161231","0 SPACEBEE-163","1 55089U 23001CJ  24013.73385192  .00045663  00000-0  14579-2 0  9993","2 55089  97.4440  78.1964 0010858 347.6875  12.4099 15.32282172 57194","2023-001CJ","55089","6847.142","93.977","476.442","461.572","0"
"GENERATED VIA SPACETRACK.ORG API","18 SPCS","55089","SPACEBEE-163","PAYLOAD","U","23001CJ","2024-01-14 03:00:58","69440","15.32320503","0.0010826","97.4438","78.5902","346.3292","13.7655","0","999","5725","0.0015303","0.00048006","0","4161833","0 SPACEBEE-163","1 55089U 23001CJ  24014.12567210  .00048006  00000-0  15303-2 0  9990","2 55089  97.4438  78.5902 0010826 346.3292  13.7655 15.32320503 57251","2023-001CJ","55089","6847.028","93.975","476.306","461.480","0"
"GENERATED VIA SPACETRACK.ORG API","18 SPCS","55089","SPACEBEE-163","PAYLOAD","U","23001CJ","2024-01-14 17:07:16","332672","15.32382325","0.0010805","97.4438","79.1809","344.2967","15.7938","0","999","5734","0.0016739","0.00052651","0","4162095","0 SPACEBEE-163","1 55089U 23001CJ  24014.71338348  .00052651  00000-0  16739-2 0  9998","2 55089  97.4438  79.1809 0010805 344.2967  15.7938 15.32382325 57343","2023-001CJ","55089","6846.844","93.971","476.107","461.311","0"
"GENERATED VIA SPACETRACK.ORG API","18 SPCS","55089","SPACEBEE-163","PAYLOAD","U","23001CJ","2024-01-14 17:07:16","332672","15.32382325","0.0010805","97.4438","79.1809","344.2967","15.7938","0","999","5734","0.0016739","0.00052651","0","4162100","0 SPACEBEE-163","1 55089U 23001CJ  24014.71338348  .00052651  00000-0  16739-2 0  9998","2 55089  97.4438  79.1809 0010805 344.2967  15.7938 15.32382325 57343","2023-001CJ","55089","6846.844","93.971","476.107","461.311","0"
"GENERATED VIA SPACETRACK.ORG API","18 SPCS","55089","SPACEBEE-163","PAYLOAD","U","23001CJ","2024-01-15 04:05:29","56416","15.32433317","0.0010769","97.4437","79.6403","342.6931","17.3942","0","999","5741","0.001739","0.00054804","0","4162722","0 SPACEBEE-163","1 55089U 23001CJ  24015.17047519  .00054804  00000-0  17390-2 0  9992","2 55089  97.4437  79.6403 0010769 342.6931  17.3942 15.32433317 57418","2023-001CJ","55089","6846.692","93.968","475.930","461.184","0"
"GENERATED VIA SPACETRACK.ORG API","18 SPCS","55089","SPACEBEE-163","PAYLOAD","U","23001CJ","2024-01-15 16:37:41","951424","15.3249039","0.0010693","97.4436","80.1656","340.8611","19.2227","0","999","5749","0.001635","0.00051591","0","4162957","0 SPACEBEE-163","1 55089U 23001CJ  24015.69284666  .00051591  00000-0  16350-2 0  9990","2 55089  97.4436  80.1656 0010693 340.8611  19.2227 15.32490390 57494","2023-001CJ","55089","6846.522","93.965","475.708","461.066","0"
"GENERATED VIA SPACETRACK.ORG API","18 SPCS","55089","SPACEBEE-163","PAYLOAD","U","23001CJ","2024-01-16 03:35:51","982944","15.32536677","0.00106","97.4433","80.6252","338.9462","21.1342","0","999","5756","0.0015254","0.00048174","0","4163197","0 SPACEBEE-163","1 55089U 23001CJ  24016.14990721  .00048174  00000-0  15254-2 0  9992","2 55089  97.4433  80.6252 0010600 338.9462  21.1342 15.32536677 57565","2023-001CJ","55089","6846.384","93.962","475.506","460.992","0"
"GENERATED VIA SPACETRACK.ORG API","18 SPCS","55089","SPACEBEE-163","PAYLOAD","U","23001CJ","2024-01-16 14:34:00","775488","15.32583674","0.0010849","97.4433","81.085","337.6826","22.3943","0","999","5763","0.0014998","0.00047433","0","4163580","0 SPACEBEE-163","1 55089U 23001CJ  24016.60695342  .00047433  00000-0  14998-2 0  9995","2 55089  97.4433  81.0850 0010849 337.6826  22.3943 15.32583674 57636","2023-001CJ","55089","6846.244","93.959","475.537","460.682","0"
